      2.10          N: GNSS NAV DATA                        RINEX VERSION / TYPE
fic2rin                                 12/31/2019 00:19:48 PGM / RUN BY / DATE
                                                            END OF HEADER
19 19 12 30 20  0  0.0-2.191890962422e-04 5.115907697473e-12 0.000000000000e+00
    3.300000000000e+01 6.640625000000e+01 4.041954077897e-09 1.193993470941e+00
    3.222376108170e-06 9.164262562990e-03 5.505979061127e-06 5.153666553497e+03
    1.584000000000e+05-9.872019290924e-08-1.530212454279e+00-1.695007085800e-07
    9.820367022505e-01 2.898750000000e+02 1.544174156755e+00-8.047835224640e-09
    6.750281176306e-11 1.000000000000e+00 2.086000000000e+03 0.000000000000e+00
    2.400000000000e+00 0.000000000000e+00-1.536682248116e-08 3.300000000000e+01
    1.512000000000e+05 4.000000000000e+00
20 19 12 30 20  0  0.0 5.277297459543e-04 0.000000000000e+00 0.000000000000e+00
    2.300000000000e+01-9.556250000000e+01 4.974492921883e-09 2.195785272642e+00
   -4.941597580910e-06 5.097743473016e-03 8.512288331985e-06 5.153630048752e+03
    1.584000000000e+05 5.960464477539e-08 3.341944319909e-01 8.568167686462e-08
    9.328901361501e-01 1.984687500000e+02 2.542142121738e+00-8.253558079537e-09
   -4.857345185067e-11 1.000000000000e+00 2.086000000000e+03 0.000000000000e+00
    2.400000000000e+00 0.000000000000e+00-8.381903171539e-09 2.300000000000e+01
    1.512000000000e+05 4.000000000000e+00
11 19 12 30 20  0  0.0-4.042470827699e-04 1.091393642128e-11 0.000000000000e+00
    6.900000000000e+01 3.275000000000e+01 5.617734001170e-09 1.886140409799e+00
    1.583248376846e-06 1.594107644632e-02 1.778826117516e-06 5.152860923767e+03
    1.584000000000e+05 2.831220626831e-07-1.042798894954e+00 2.980232238770e-08
    9.114805729045e-01 3.144062500000e+02 1.970744212927e+00-8.661075054255e-09
    4.393040130612e-11 1.000000000000e+00 2.086000000000e+03 0.000000000000e+00
    2.400000000000e+00 0.000000000000e+00-1.210719347000e-08 6.900000000000e+01
    1.512000000000e+05 4.000000000000e+00
25 19 12 30 20  0  0.0-1.684622839093e-05 4.547473508865e-13 0.000000000000e+00
    7.400000000000e+01 4.231250000000e+01 4.304107854797e-09 9.919609205254e-01
    2.268701791763e-06 8.817185764201e-03 9.661540389061e-06 5.153616674423e+03
    1.584000000000e+05-5.960464477539e-08-2.677120217168e+00 1.396983861923e-07
    9.678431638326e-01 1.978437500000e+02 8.855619625932e-01-7.961403052965e-09
   -4.418041172006e-10 1.000000000000e+00 2.086000000000e+03 0.000000000000e+00
    2.400000000000e+00 0.000000000000e+00 5.587935447693e-09 7.400000000000e+01
    1.512000000000e+05 4.000000000000e+00
21 19 12 30 20  0  0.0-6.302399560809e-05 5.684341886081e-12 0.000000000000e+00
    7.400000000000e+01-4.000000000000e+01 5.060210778090e-09 8.082944595658e-01
   -2.479180693626e-06 2.474406990223e-02 3.326684236526e-06 5.153587532043e+03
    1.584000000000e+05-2.868473529816e-07-6.479516877543e-01-3.818422555923e-07
    9.513959533003e-01 3.176875000000e+02-1.384434295908e+00-8.921800200218e-09
   -9.357532635937e-11 1.000000000000e+00 2.086000000000e+03 0.000000000000e+00
    2.400000000000e+00 0.000000000000e+00-1.024454832077e-08 7.400000000000e+01
    1.512000000000e+05 4.000000000000e+00
17 19 12 30 20  0  0.0 1.900168135762e-04 6.707523425575e-12 0.000000000000e+00
    4.700000000000e+01 7.768750000000e+01 3.945164331930e-09-1.524710669542e+00
    4.254281520844e-06 1.345815707464e-02 5.448237061501e-06 5.153628112793e+03
    1.584000000000e+05 1.192092895508e-07-1.576100269417e+00 3.222376108170e-07
    9.839971704718e-01 2.898437500000e+02-1.669636293385e+00-7.906400761899e-09
    8.857511808063e-11 1.000000000000e+00 2.086000000000e+03 0.000000000000e+00
    2.400000000000e+00 0.000000000000e+00-1.117587089539e-08 4.700000000000e+01
    1.512000000000e+05 4.000000000000e+00
29 19 12 30 20  0  0.0 5.031935870647e-06-9.663381206337e-12 0.000000000000e+00
    1.040000000000e+02 8.415625000000e+01 3.936592546309e-09-1.221914764900e+00
    4.295259714127e-06 1.027753693052e-03 5.455687642097e-06 5.153649763107e+03
    1.584000000000e+05 2.421438694000e-08-1.564595338899e+00 5.774199962616e-08
    9.855746672209e-01 2.878437500000e+02 1.997986521255e+00-7.920687071267e-09
    1.592923494515e-10 1.000000000000e+00 2.086000000000e+03 0.000000000000e+00
    3.400000000000e+00 0.000000000000e+00-9.778887033463e-09 1.040000000000e+02
    1.512000000000e+05 4.000000000000e+00
32 19 12 30 20  0  0.0 1.709158532321e-04 1.102762325900e-11 0.000000000000e+00
    5.700000000000e+01 8.531250000000e+00 4.799128474393e-09-6.558290817537e-01
    5.122274160385e-07 3.383773961104e-03 9.022653102875e-06 5.153661605835e+03
    1.584000000000e+05 4.470348358154e-08 1.502309552126e+00 1.005828380585e-07
    9.563210279351e-01 2.030312500000e+02-2.550070682760e+00-8.046406593704e-09
    4.350181202508e-10 1.000000000000e+00 2.086000000000e+03 0.000000000000e+00
    2.400000000000e+00 0.000000000000e+00 4.656612873077e-10 5.700000000000e+01
    1.512000000000e+05 4.000000000000e+00
26 19 12 30 20  0  0.0 1.169019378722e-04 8.071765478235e-12 0.000000000000e+00
    8.200000000000e+01 2.809375000000e+01 4.728768400756e-09 4.015479937429e-01
    1.447275280952e-06 4.461209988222e-03 9.095296263695e-06 5.153723838806e+03
    1.584000000000e+05 7.636845111847e-08-2.709655913165e+00-5.587935447693e-09
    9.490140476386e-01 1.933125000000e+02 1.511475987613e-01-8.114266563201e-09
   -4.785913638228e-10 1.000000000000e+00 2.086000000000e+03 0.000000000000e+00
    2.400000000000e+00 0.000000000000e+00 7.450580596924e-09 8.200000000000e+01
    1.512000000000e+05 4.000000000000e+00
28 19 12 30 20  0  0.0 7.479358464479e-04-2.160049916711e-12 0.000000000000e+00
    7.600000000000e+01 3.584375000000e+01 4.093741949356e-09-7.135700472624e-01
    1.905485987663e-06 1.894135808107e-02 9.948387742043e-06 5.153711832047e+03
    1.584000000000e+05-2.700835466385e-07-2.587390213039e+00 3.166496753693e-08
    9.797254306624e-01 2.030312500000e+02-1.424193746792e+00-8.088908364073e-09
   -2.450102056585e-10 1.000000000000e+00 2.086000000000e+03 0.000000000000e+00
    3.400000000000e+00 0.000000000000e+00-1.117587089539e-08 7.600000000000e+01
    1.512000000000e+05 4.000000000000e+00
18 19 12 30 20  0  0.0 1.102085225284e-04 2.614797267597e-12 0.000000000000e+00
    4.300000000000e+01-3.050000000000e+01 4.577690679191e-09 2.360638574918e+00
   -1.704320311546e-06 1.563760358840e-02 2.199783921242e-06 5.153655721664e+03
    1.584000000000e+05 1.657754182816e-07-6.376280182349e-01-9.685754776001e-08
    9.570329058163e-01 3.318125000000e+02 1.449792577840e+00-8.143196339671e-09
   -2.464388365953e-11 1.000000000000e+00 2.086000000000e+03 0.000000000000e+00
    2.400000000000e+00 6.300000000000e+01-5.587935447693e-09 4.300000000000e+01
    1.512000000000e+05 4.000000000000e+00
 4 19 12 30 20  0  0.0-2.742884680629e-05-5.115907697473e-12 0.000000000000e+00
    1.690000000000e+02 6.125000000000e+00 4.687695261324e-09-2.349582521794e+00
    1.918524503708e-07 4.418771713972e-04 8.640810847282e-06 5.153729211807e+03
    1.584000000000e+05 4.284083843231e-08 1.541348205717e+00-1.862645149231e-08
    9.594565529195e-01 2.152812500000e+02-2.705781232729e+00-7.956045686952e-09
    4.232319150224e-10 1.000000000000e+00 2.086000000000e+03 0.000000000000e+00
    2.400000000000e+00 6.300000000000e+01-4.190951585770e-09 9.370000000000e+02
    1.512600000000e+05 4.000000000000e+00
 6 19 12 30 19 59 44.0-1.686057075858e-04-1.068656274583e-11 0.000000000000e+00
    0.000000000000e+00-4.718750000000e+01 4.162673392055e-09 3.005785186012e+00
   -2.348795533180e-06 1.735134166665e-03 3.116205334663e-06 5.153726581573e+03
    1.583840000000e+05 2.793967723846e-08-5.860904617517e-01-9.313225746155e-09
    9.781042789750e-01 3.291250000000e+02-1.195081743014e+00-8.073907739237e-09
   -2.892977646988e-11 1.000000000000e+00 2.086000000000e+03 0.000000000000e+00
    2.400000000000e+00 0.000000000000e+00 4.656612873077e-09 0.000000000000e+00
    1.527300000000e+05 4.000000000000e+00
29 19 12 30 19 59 44.0 5.031004548073e-06-9.663381206337e-12 0.000000000000e+00
    6.000000000000e+00 8.415625000000e+01 3.936592546309e-09-1.224247553087e+00
    4.295259714127e-06 1.027754391544e-03 5.455687642097e-06 5.153649757385e+03
    1.583840000000e+05 2.421438694000e-08-1.564595201385e+00 5.774199962616e-08
    9.855746613692e-01 2.878437500000e+02 1.997985563044e+00-7.920687071267e-09
    1.592923494515e-10 1.000000000000e+00 2.086000000000e+03 0.000000000000e+00
    2.400000000000e+00 0.000000000000e+00-9.778887033463e-09 6.000000000000e+00
    1.561800000000e+05 4.000000000000e+00
 6 19 12 30 21 59 44.0-1.686825416982e-04-1.068656274583e-11 0.000000000000e+00
    6.000000000000e+00-3.259375000000e+01 4.273392289656e-09-2.227666624399e+00
   -1.674517989159e-06 1.737056649290e-03 3.084540367126e-06 5.153722713470e+03
    1.655840000000e+05 6.891787052155e-08-5.861484752310e-01 6.332993507385e-08
    9.781037406211e-01 3.307187500000e+02-1.194667710865e+00-8.131410134442e-09
   -6.928860043404e-11 1.000000000000e+00 2.086000000000e+03 0.000000000000e+00
    2.400000000000e+00 0.000000000000e+00 4.656612873077e-09 6.000000000000e+00
    1.584000000000e+05 4.000000000000e+00
29 19 12 30 21 59 44.0 4.960689693689e-06-9.663381206337e-12 0.000000000000e+00
    7.000000000000e+00 7.784375000000e+01 3.929806549360e-09-1.745999603320e-01
    3.973022103310e-06 1.027659629472e-03 5.437061190605e-06 5.153648944855e+03
    1.655840000000e+05-4.656612873077e-08-1.564651746094e+00 0.000000000000e+00
    9.855756151918e-01 2.876875000000e+02 1.998529806605e+00-7.895328872139e-09
    8.857511808063e-11 1.000000000000e+00 2.086000000000e+03 0.000000000000e+00
    2.400000000000e+00 0.000000000000e+00-9.778887033463e-09 7.000000000000e+00
    1.584000000000e+05 4.000000000000e+00
